POLYITAN-1              
1 40042U 14033AJ  26199.04085337  .00010956  00000+0  33245-3 0  9998
2 40042  98.0931 228.2449 0007650  55.8959 304.3007 15.34281566658324
TIGRISAT                
1 40043U 14033AK  26199.24143807  .00000693  00000+0  85502-4 0  9999
2 40043  97.7869 348.5496 0048381 334.2186  25.6618 14.85254256650235
AEROCUBE 6A             
1 40045U 14033AM  26199.21275850  .00003259  00000+0  27497-3 0  9991
2 40045  97.7260   5.8398 0036149 270.5263  89.1817 14.98362879651268
AEROCUBE 6B             
1 40046U 14033AN  26198.98476593  .00002592  00000+0  21135-3 0  9994
2 40046  97.7206   5.4660 0038128 260.2360  99.4557 14.99812735651379
CANX-4                  
1 40055U 14034C   26199.08948309  .00000380  00000+0  56003-4 0  9992
2 40055  98.3079  75.5314 0011369 272.4360  87.5549 14.81313900649109
CANX-5                  
1 40056U 14034D   26199.15510279  .00000383  00000+0  56388-4 0  9991
2 40056  98.3081  75.6448 0011366 272.4571  87.5339 14.81331344639921
UKUBE-1                 
1 40074U 14037F   26199.30162791  .00004593  00000+0  25748-3 0  9995
2 40074  98.4246 205.8544 0003190  82.4039 277.7553 15.13977056653269
BRITE-PL2 (HEWELIUSZ)   
1 40119U 14049B   26198.83391316  .00000566  00000+0  57609-4 0  9990
2 40119  97.9121 311.0758 0014076  13.6033 346.5563 14.94690566646025
AEROCUBE 5C             
1 40965U 15058B   26199.14787499  .00001761  00000+0  16317-3 0  9994
2 40965  64.7649 166.2611 0132531  51.3337 309.9544 14.91587444370272
AEROCUBE 7              
1 40966U 15058C   26199.25566736  .00002720  00000+0  22252-3 0  9997
2 40966  64.7616 147.4861 0122264  49.5962 311.5743 14.95931169370608
FOX-1A (AO-85)          
1 40967U 15058D   26199.20553503  .00001643  00000+0  15522-3 0  9996
2 40967  64.7726 182.5769 0132608  44.6692 316.5010 14.91099060118194
SINOD-D 1               
1 40968U 15058E   26199.29679198  .00002745  00000+0  22387-3 0  9996
2 40968  64.7739 161.4732 0121321  40.9859 320.0295 14.96105749121319
SNAP-3 ALICE            
1 40970U 15058G   26198.86564696  .00096808  00000+0  85474-3 0  9996
2 40970  64.7499 357.2559 0025192 346.5767  13.4709 15.67750448121683
LMRST-SAT               
1 40971U 15058H   26199.10172851  .00001610  00000+0  15335-3 0  9999
2 40971  64.7733 179.2967 0134134  46.7075 314.5131 14.90713729118167
SNAP-3 EDDIE            
1 40972U 15058J   26198.83083352  .00102609  00000+0  85238-3 0  9995
2 40972  64.7410 347.8654 0026357 349.2904  10.7681 15.69169555123828
PROPCUBE 3              
1 40973U 15058K   26199.26173950  .00002296  00000+0  19608-3 0  9997
2 40973  64.7677 155.4332 0126012  47.8367 313.3367 14.94430820119442
BISONSAT                
1 40974U 15058L   26199.09142284  .00007536  00000+0  35766-3 0  9990
2 40974  64.7579  73.6613 0082405  34.6285 326.0166 15.16978256120307
SNAP-3 JIMI             
1 40975U 15058M   26199.20686919  .00003747  00000+0  25951-3 0  9997
2 40975  64.7647 121.6022 0108079  43.1716 317.7811 15.02634025118884
PROPCUBE 1 (FLORA)      
1 40976U 15058N   26199.15223103  .00001340  00000+0  13542-3 0  9994
2 40976  64.7717 199.2569 0132698  48.9628 312.2863 14.89336938120874
SINOD-D 3               
1 40977U 15058P   26199.16454012  .00002226  00000+0  19389-3 0  9990
2 40977  64.7709 179.0719 0121300  45.9948 315.1085 14.94187773119388
RAVAN                   
1 41849U 16067B   26197.68716448  .00037324  00000+0  50618-3 0  9996
2 41849  97.9839  90.7306 0002422 209.8992 150.2123 15.57575989532282
CELTEE 1                
1 41850U 16067C   26199.08522811  .00002585  00000+0  12381-3 0  9999
2 41850  98.0628  67.7592 0002385 106.4319 253.7176 15.19956921530570
OPTICUBE 04             
1 41851U 16067D   26199.09751852  .00000928  00000+0  61749-4 0  9992
2 41851  98.0673  52.9918 0015955  18.5232 341.6573 15.09778428529831
AEROCUBE 8D             
1 41852U 16067E   26199.13387430  .00003907  00000+0  16087-3 0  9999
2 41852  98.0635  71.6617 0004425  49.4741 310.6879 15.24793756530781
AEROCUBE 8C             
1 41853U 16067F   26199.15373570  .00003703  00000+0  15150-3 0  9996
2 41853  98.0510  68.8712 0003964 329.8363  30.2644 15.25047561530782
CORVUS BC2              
1 42846U 17042X   26198.94999599  .00001166  00000+0  82916-4 0  9990
2 42846  97.4093 359.1122 0013170  13.7355 346.4228 15.06463717491695
CORVUS BC1              
1 42847U 17042Y   26199.00764256  .00001615  00000+0  11286-3 0  9999
2 42847  97.4125   0.0017 0011353 350.0028  10.0972 15.06628310491739
MAKERSAT 0              
1 43016U 17073D   26198.93211796  .00011173  00000+0  29470-3 0  9993
2 43016  97.4572  81.7042 0105583 162.5490 197.9426 15.33071683471176
SIRION PATHFINDER-2     
1 43759U 18099B   26199.09903637  .00002215  00000+0  12278-3 0  9991
2 43759  97.4233 247.4239 0008747 181.1964 178.9249 15.14789995417308
CORVUS BC4              
1 43767U 18099K   26199.08162619  .00002039  00000+0  12003-3 0  9996
2 43767  97.4047 241.1591 0006631 248.4499 111.6025 15.12713739417073
