OBJECT_NAME,OBJECT_ID,EPOCH,MEAN_MOTION,ECCENTRICITY,INCLINATION,RA_OF_ASC_NODE,ARG_OF_PERICENTER,MEAN_ANOMALY,EPHEMERIS_TYPE,CLASSIFICATION_TYPE,NORAD_CAT_ID,ELEMENT_SET_NO,REV_AT_EPOCH,BSTAR,MEAN_MOTION_DOT,MEAN_MOTION_DDOT
POLYITAN-1,2014-033AJ,2026-07-18T00:58:49.731168,15.34281566,.00076502,98.0931,228.2449,55.8959,304.3007,0,U,40042,999,65832,.33244666E-3,.10956E-3,0
TIGRISAT,2014-033AK,2026-07-18T05:47:40.249248,14.85254256,.00483817,97.7869,348.5496,334.2186,25.6618,0,U,40043,999,65023,.85502368E-4,.693E-5,0
AEROCUBE 6A,2014-033AM,2026-07-18T05:06:22.334400,14.98362879,.00361498,97.7260,5.8398,270.5263,89.1817,0,U,40045,999,65126,.27496798E-3,.3259E-4,0
AEROCUBE 6B,2014-033AN,2026-07-17T23:38:03.776352,14.99812735,.0038128,97.7206,5.4660,260.2360,99.4557,0,U,40046,999,65137,.21134953E-3,.2592E-4,0
CANX-4,2014-034C,2026-07-18T02:08:51.338976,14.81313900,.00113694,98.3079,75.5314,272.4360,87.5549,0,U,40055,999,64910,.56003001E-4,.38E-5,0
CANX-5,2014-034D,2026-07-18T03:43:20.881056,14.81331344,.00113668,98.3081,75.6448,272.4571,87.5339,0,U,40056,999,63992,.56387789E-4,.383E-5,0
UKUBE-1,2014-037F,2026-07-18T07:14:20.651424,15.13977056,.00031905,98.4246,205.8544,82.4039,277.7553,0,U,40074,999,65326,.25747607E-3,.4593E-4,0
BRITE-PL2 (HEWELIUSZ),2014-049B,2026-07-17T20:00:50.097024,14.94690566,.00140762,97.9121,311.0758,13.6033,346.5563,0,U,40119,999,64602,.57608523E-4,.566E-5,0
AEROCUBE 5C,2015-058B,2026-07-18T03:32:56.399136,14.91587444,.01325318,64.7649,166.2611,51.3337,309.9544,0,U,40965,999,37027,.16317028E-3,.1761E-4,0
AEROCUBE 7,2015-058C,2026-07-18T06:08:09.659904,14.95931169,.0122264,64.7616,147.4861,49.5962,311.5743,0,U,40966,999,37060,.22251658E-3,.272E-4,0
FOX-1A (AO-85),2015-058D,2026-07-18T04:55:58.226592,14.91099060,.01326085,64.7726,182.5769,44.6692,316.5010,0,U,40967,999,11819,.15522007E-3,.1643E-4,0
SINOD-D 1,2015-058E,2026-07-18T07:07:22.827072,14.96105749,.01213214,64.7739,161.4732,40.9859,320.0295,0,U,40968,999,12131,.22386734E-3,.2745E-4,0
SNAP-3 ALICE,2015-058G,2026-07-17T20:46:31.897344,15.67750448,.00251925,64.7499,357.2559,346.5767,13.4709,0,U,40970,999,12168,.85474217E-3,.96808E-3,0
LMRST-SAT,2015-058H,2026-07-18T02:26:29.343264,14.90713729,.01341346,64.7733,179.2967,46.7075,314.5131,0,U,40971,999,11816,.15335479E-3,.161E-4,0
SNAP-3 EDDIE,2015-058J,2026-07-17T19:56:24.016128,15.69169555,.00263573,64.7410,347.8654,349.2904,10.7681,0,U,40972,999,12382,.85238224E-3,.102609E-2,0
PROPCUBE 3,2015-058K,2026-07-18T06:16:54.292800,14.94430820,.01260125,64.7677,155.4332,47.8367,313.3367,0,U,40973,999,11944,.19607963E-3,.2296E-4,0
BISONSAT,2015-058L,2026-07-18T02:11:38.933376,15.16978256,.00824051,64.7579,73.6613,34.6285,326.0166,0,U,40974,999,12030,.35765973E-3,.7536E-4,0
SNAP-3 JIMI,2015-058M,2026-07-18T04:57:53.498016,15.02634025,.01080794,64.7647,121.6022,43.1716,317.7811,0,U,40975,999,11888,.25950549E-3,.3747E-4,0
PROPCUBE 1 (FLORA),2015-058N,2026-07-18T03:39:12.760992,14.89336938,.01326986,64.7717,199.2569,48.9628,312.2863,0,U,40976,999,12087,.13541988E-3,.134E-4,0
SINOD-D 3,2015-058P,2026-07-18T03:56:56.266368,14.94187773,.01213008,64.7709,179.0719,45.9948,315.1085,0,U,40977,999,11938,.19389308E-3,.2226E-4,0
RAVAN,2016-067B,2026-07-16T16:29:31.011072,15.57575989,.00024225,97.9839,90.7306,209.8992,150.2123,0,U,41849,999,53228,.50617754E-3,.37324E-3,0
CELTEE 1,2016-067C,2026-07-18T02:02:43.708704,15.19956921,.00023852,98.0628,67.7592,106.4319,253.7176,0,U,41850,999,53057,.12381382E-3,.2585E-4,0
OPTICUBE 04,2016-067D,2026-07-18T02:20:25.600128,15.09778428,.00159555,98.0673,52.9918,18.5232,341.6573,0,U,41851,999,52983,.61748732E-4,.928E-5,0
AEROCUBE 8D,2016-067E,2026-07-18T03:12:46.739520,15.24793756,.00044258,98.0635,71.6617,49.4741,310.6879,0,U,41852,999,53078,.160875E-3,.3907E-4,0
AEROCUBE 8C,2016-067F,2026-07-18T03:41:22.764480,15.25047561,.00039644,98.0510,68.8712,329.8363,30.2644,0,U,41853,999,53078,.15149638E-3,.3703E-4,0
CORVUS BC2,2017-042X,2026-07-17T22:47:59.653536,15.06463717,.00131705,97.4093,359.1122,13.7355,346.4228,0,U,42846,999,49169,.82915868E-4,.1166E-4,0
CORVUS BC1,2017-042Y,2026-07-18T00:11:00.317184,15.06628310,.0011353,97.4125,0.0017,350.0028,10.0972,0,U,42847,999,49173,.11285909E-3,.1615E-4,0
MAKERSAT 0,2017-073D,2026-07-17T22:22:14.991744,15.33071683,.01055838,97.4572,81.7042,162.5490,197.9426,0,U,43016,999,47117,.29470365E-3,.11173E-3,0
SIRION PATHFINDER-2,2018-099B,2026-07-18T02:22:36.742368,15.14789995,.00087477,97.4233,247.4239,181.1964,178.9249,0,U,43759,999,41730,.12278034E-3,.2215E-4,0
CORVUS BC4,2018-099K,2026-07-18T01:57:32.502816,15.12713739,.00066314,97.4047,241.1591,248.4499,111.6025,0,U,43767,999,41707,.12002987E-3,.2039E-4,0
